ONEWEB-0596             
1 54662U 22166W   25349.28770248  .00000072  00000+0  14295-3 0  9993
2 54662  87.9220 280.6678 0001710  76.6578 283.4747 13.21824881147249
ONEWEB-0597             
1 54663U 22166X   25349.34530377  .00000024  00000+0  27517-4 0  9997
2 54663  87.9221 280.6610 0001819  80.7276 279.4063 13.21825381147251
ONEWEB-0600             
1 54664U 22166Y   25349.32719682  .00000115  00000+0  24613-3 0  9998
2 54664  87.9221 280.6555 0001931  78.2471 281.8880 13.21825303147229
ONEWEB-0601             
1 54665U 22166Z   25349.31896962  .00000060  00000+0  11437-3 0  9994
2 54665  87.9219 280.6749 0001878  85.8832 274.2516 13.21825771147419
ONEWEB-0602             
1 54666U 22166AA  25349.35928640  .00000042  00000+0  69848-4 0  9998
2 54666  87.9220 280.6712 0002164  77.4919 282.6457 13.21827378147269
ONEWEB-0603             
1 54667U 22166AB  25349.28934982 -.00000035  00000+0 -11732-3 0  9999
2 54667  87.9229 280.6242 0001918  81.0232 279.1119 13.21824068147182
ONEWEB-0604             
1 54668U 22166AC  25349.35352041  .00000033  00000+0  48534-4 0  9995
2 54668  87.9221 280.6311 0001819  75.2122 284.9213 13.21823860147150
ONEWEB-0605             
1 54669U 22166AD  25349.34694838 -.00000005  00000+0 -43995-4 0  9995
2 54669  87.9218 280.6603 0001689  97.9141 262.2185 13.21825545147225
ONEWEB-0606             
1 54670U 22166AE  25349.21694777  .00000047  00000+0  82321-4 0  9995
2 54670  87.9222 280.6976 0001678  71.3839 288.7478 13.21826603147261
ONEWEB-0607             
1 54671U 22166AF  25349.33542693  .00000042  00000+0  69166-4 0  9995
2 54671  87.9220 280.6375 0001898  80.5856 279.5492 13.21825661147254
ONEWEB-0608             
1 54672U 22166AG  25349.34200467 -.00000011  00000+0 -59340-4 0  9998
2 54672  87.9229 280.6242 0001882  95.0466 265.0883 13.21824778147261
ONEWEB-0610             
1 54673U 22166AH  25349.32225742  .00000067  00000+0  12971-3 0  9997
2 54673  87.9221 280.6605 0001946  94.4044 265.7313 13.21824798147169
ONEWEB-0611             
1 54674U 22166AJ  25349.31567622  .00000114  00000+0  24348-3 0  9997
2 54674  87.9220 280.6575 0001822  69.1208 291.0121 13.21827635147150
ONEWEB-0612             
1 54675U 22166AK  25349.32884083  .00000118  00000+0  25416-3 0  9993
2 54675  87.9222 280.6343 0001845  81.0184 279.1159 13.21825340147145
ONEWEB-0615             
1 54676U 22166AL  25349.30909890  .00000137  00000+0  30099-3 0  9990
2 54676  87.9222 280.6652 0001819  77.4645 282.6692 13.21826559147156
ONEWEB-0655             
1 54677U 22166AM  25349.36011829  .00000015  00000+0  39481-5 0  9994
2 54677  87.9218 280.6590 0002068  78.7004 281.4362 13.21826058147158
