[{"OBJECT_NAME":"ONEWEB-0596","OBJECT_ID":"2022-166W","EPOCH":"2025-12-15T06:54:17.494272","MEAN_MOTION":13.21824881,"ECCENTRICITY":0.00017107,"INCLINATION":87.922,"RA_OF_ASC_NODE":280.6678,"ARG_OF_PERICENTER":76.6578,"MEAN_ANOMALY":283.4747,"EPHEMERIS_TYPE":0,"CLASSIFICATION_TYPE":"U","NORAD_CAT_ID":54662,"ELEMENT_SET_NO":999,"REV_AT_EPOCH":14724,"BSTAR":0.00014295203,"MEAN_MOTION_DOT":7.2e-7,"MEAN_MOTION_DDOT":0},{"OBJECT_NAME":"ONEWEB-0597","OBJECT_ID":"2022-166X","EPOCH":"2025-12-15T08:17:14.245728","MEAN_MOTION":13.21825381,"ECCENTRICITY":0.00018199,"INCLINATION":87.9221,"RA_OF_ASC_NODE":280.661,"ARG_OF_PERICENTER":80.7276,"MEAN_ANOMALY":279.4063,"EPHEMERIS_TYPE":0,"CLASSIFICATION_TYPE":"U","NORAD_CAT_ID":54663,"ELEMENT_SET_NO":999,"REV_AT_EPOCH":14725,"BSTAR":2.7517216e-5,"MEAN_MOTION_DOT":2.4e-7,"MEAN_MOTION_DDOT":0},{"OBJECT_NAME":"ONEWEB-0600","OBJECT_ID":"2022-166Y","EPOCH":"2025-12-15T07:51:09.805248","MEAN_MOTION":13.21825303,"ECCENTRICITY":0.00019317,"INCLINATION":87.9221,"RA_OF_ASC_NODE":280.6555,"ARG_OF_PERICENTER":78.2471,"MEAN_ANOMALY":281.888,"EPHEMERIS_TYPE":0,"CLASSIFICATION_TYPE":"U","NORAD_CAT_ID":54664,"ELEMENT_SET_NO":999,"REV_AT_EPOCH":14722,"BSTAR":0.00024612638,"MEAN_MOTION_DOT":1.15e-6,"MEAN_MOTION_DDOT":0},{"OBJECT_NAME":"ONEWEB-0601","OBJECT_ID":"2022-166Z","EPOCH":"2025-12-15T07:39:18.975168","MEAN_MOTION":13.21825771,"ECCENTRICITY":0.00018789,"INCLINATION":87.9219,"RA_OF_ASC_NODE":280.6749,"ARG_OF_PERICENTER":85.8832,"MEAN_ANOMALY":274.2516,"EPHEMERIS_TYPE":0,"CLASSIFICATION_TYPE":"U","NORAD_CAT_ID":54665,"ELEMENT_SET_NO":999,"REV_AT_EPOCH":14741,"BSTAR":0.00011437078,"MEAN_MOTION_DOT":6.0e-7,"MEAN_MOTION_DDOT":0},{"OBJECT_NAME":"ONEWEB-0602","OBJECT_ID":"2022-166AA","EPOCH":"2025-12-15T08:37:22.344960","MEAN_MOTION":13.21827378,"ECCENTRICITY":0.00021642,"INCLINATION":87.922,"RA_OF_ASC_NODE":280.6712,"ARG_OF_PERICENTER":77.4919,"MEAN_ANOMALY":282.6457,"EPHEMERIS_TYPE":0,"CLASSIFICATION_TYPE":"U","NORAD_CAT_ID":54666,"ELEMENT_SET_NO":999,"REV_AT_EPOCH":14726,"BSTAR":6.9848292e-5,"MEAN_MOTION_DOT":4.2e-7,"MEAN_MOTION_DDOT":0},{"OBJECT_NAME":"ONEWEB-0603","OBJECT_ID":"2022-166AB","EPOCH":"2025-12-15T06:56:39.824448","MEAN_MOTION":13.21824068,"ECCENTRICITY":0.00019188,"INCLINATION":87.9229,"RA_OF_ASC_NODE":280.6242,"ARG_OF_PERICENTER":81.0232,"MEAN_ANOMALY":279.1119,"EPHEMERIS_TYPE":0,"CLASSIFICATION_TYPE":"U","NORAD_CAT_ID":54667,"ELEMENT_SET_NO":999,"REV_AT_EPOCH":14718,"BSTAR":-0.00011731883,"MEAN_MOTION_DOT":-3.5e-7,"MEAN_MOTION_DDOT":0},{"OBJECT_NAME":"ONEWEB-0604","OBJECT_ID":"2022-166AC","EPOCH":"2025-12-15T08:29:04.163424","MEAN_MOTION":13.2182386,"ECCENTRICITY":0.00018194,"INCLINATION":87.9221,"RA_OF_ASC_NODE":280.6311,"ARG_OF_PERICENTER":75.2122,"MEAN_ANOMALY":284.9213,"EPHEMERIS_TYPE":0,"CLASSIFICATION_TYPE":"U","NORAD_CAT_ID":54668,"ELEMENT_SET_NO":999,"REV_AT_EPOCH":14715,"BSTAR":4.8533634e-5,"MEAN_MOTION_DOT":3.3e-7,"MEAN_MOTION_DDOT":0},{"OBJECT_NAME":"ONEWEB-0605","OBJECT_ID":"2022-166AD","EPOCH":"2025-12-15T08:19:36.340032","MEAN_MOTION":13.21825545,"ECCENTRICITY":0.00016892,"INCLINATION":87.9218,"RA_OF_ASC_NODE":280.6603,"ARG_OF_PERICENTER":97.9141,"MEAN_ANOMALY":262.2185,"EPHEMERIS_TYPE":0,"CLASSIFICATION_TYPE":"U","NORAD_CAT_ID":54669,"ELEMENT_SET_NO":999,"REV_AT_EPOCH":14722,"BSTAR":-4.3995279e-5,"MEAN_MOTION_DOT":-5.0e-8,"MEAN_MOTION_DDOT":0},{"OBJECT_NAME":"ONEWEB-0606","OBJECT_ID":"2022-166AE","EPOCH":"2025-12-15T05:12:24.287328","MEAN_MOTION":13.21826603,"ECCENTRICITY":0.00016788,"INCLINATION":87.9222,"RA_OF_ASC_NODE":280.6976,"ARG_OF_PERICENTER":71.3839,"MEAN_ANOMALY":288.7478,"EPHEMERIS_TYPE":0,"CLASSIFICATION_TYPE":"U","NORAD_CAT_ID":54670,"ELEMENT_SET_NO":999,"REV_AT_EPOCH":14726,"BSTAR":8.2321251e-5,"MEAN_MOTION_DOT":4.7e-7,"MEAN_MOTION_DDOT":0},{"OBJECT_NAME":"ONEWEB-0607","OBJECT_ID":"2022-166AF","EPOCH":"2025-12-15T08:03:00.886752","MEAN_MOTION":13.21825661,"ECCENTRICITY":0.00018986,"INCLINATION":87.922,"RA_OF_ASC_NODE":280.6375,"ARG_OF_PERICENTER":80.5856,"MEAN_ANOMALY":279.5492,"EPHEMERIS_TYPE":0,"CLASSIFICATION_TYPE":"U","NORAD_CAT_ID":54671,"ELEMENT_SET_NO":999,"REV_AT_EPOCH":14725,"BSTAR":6.9165769e-5,"MEAN_MOTION_DOT":4.2e-7,"MEAN_MOTION_DDOT":0},{"OBJECT_NAME":"ONEWEB-0608","OBJECT_ID":"2022-166AG","EPOCH":"2025-12-15T08:12:29.203488","MEAN_MOTION":13.21824778,"ECCENTRICITY":0.00018825,"INCLINATION":87.9229,"RA_OF_ASC_NODE":280.6242,"ARG_OF_PERICENTER":95.0466,"MEAN_ANOMALY":265.0883,"EPHEMERIS_TYPE":0,"CLASSIFICATION_TYPE":"U","NORAD_CAT_ID":54672,"ELEMENT_SET_NO":999,"REV_AT_EPOCH":14726,"BSTAR":-5.9339619e-5,"MEAN_MOTION_DOT":-1.1e-7,"MEAN_MOTION_DDOT":0},{"OBJECT_NAME":"ONEWEB-0610","OBJECT_ID":"2022-166AH","EPOCH":"2025-12-15T07:44:03.041088","MEAN_MOTION":13.21824798,"ECCENTRICITY":0.00019469,"INCLINATION":87.9221,"RA_OF_ASC_NODE":280.6605,"ARG_OF_PERICENTER":94.4044,"MEAN_ANOMALY":265.7313,"EPHEMERIS_TYPE":0,"CLASSIFICATION_TYPE":"U","NORAD_CAT_ID":54673,"ELEMENT_SET_NO":999,"REV_AT_EPOCH":14716,"BSTAR":0.00012970918,"MEAN_MOTION_DOT":6.7e-7,"MEAN_MOTION_DDOT":0},{"OBJECT_NAME":"ONEWEB-0611","OBJECT_ID":"2022-166AJ","EPOCH":"2025-12-15T07:34:34.425408","MEAN_MOTION":13.21827635,"ECCENTRICITY":0.00018222,"INCLINATION":87.922,"RA_OF_ASC_NODE":280.6575,"ARG_OF_PERICENTER":69.1208,"MEAN_ANOMALY":291.0121,"EPHEMERIS_TYPE":0,"CLASSIFICATION_TYPE":"U","NORAD_CAT_ID":54674,"ELEMENT_SET_NO":999,"REV_AT_EPOCH":14715,"BSTAR":0.00024348124,"MEAN_MOTION_DOT":1.14e-6,"MEAN_MOTION_DDOT":0},{"OBJECT_NAME":"ONEWEB-0612","OBJECT_ID":"2022-166AK","EPOCH":"2025-12-15T07:53:31.847712","MEAN_MOTION":13.2182534,"ECCENTRICITY":0.00018455,"INCLINATION":87.9222,"RA_OF_ASC_NODE":280.6343,"ARG_OF_PERICENTER":81.0184,"MEAN_ANOMALY":279.1159,"EPHEMERIS_TYPE":0,"CLASSIFICATION_TYPE":"U","NORAD_CAT_ID":54675,"ELEMENT_SET_NO":999,"REV_AT_EPOCH":14714,"BSTAR":0.00025415978,"MEAN_MOTION_DOT":1.18e-6,"MEAN_MOTION_DDOT":0},{"OBJECT_NAME":"ONEWEB-0615","OBJECT_ID":"2022-166AL","EPOCH":"2025-12-15T07:25:06.144960","MEAN_MOTION":13.21826559,"ECCENTRICITY":0.00018192,"INCLINATION":87.9222,"RA_OF_ASC_NODE":280.6652,"ARG_OF_PERICENTER":77.4645,"MEAN_ANOMALY":282.6692,"EPHEMERIS_TYPE":0,"CLASSIFICATION_TYPE":"U","NORAD_CAT_ID":54676,"ELEMENT_SET_NO":999,"REV_AT_EPOCH":14715,"BSTAR":0.00030099012,"MEAN_MOTION_DOT":1.37e-6,"MEAN_MOTION_DDOT":0},{"OBJECT_NAME":"ONEWEB-0655","OBJECT_ID":"2022-166AM","EPOCH":"2025-12-15T08:38:34.220256","MEAN_MOTION":13.21826058,"ECCENTRICITY":0.00020688,"INCLINATION":87.9218,"RA_OF_ASC_NODE":280.659,"ARG_OF_PERICENTER":78.7004,"MEAN_ANOMALY":281.4362,"EPHEMERIS_TYPE":0,"CLASSIFICATION_TYPE":"U","NORAD_CAT_ID":54677,"ELEMENT_SET_NO":999,"REV_AT_EPOCH":14715,"BSTAR":3.948095e-6,"MEAN_MOTION_DOT":1.5e-7,"MEAN_MOTION_DDOT":0}]
